{
  "type": "FeatureCollection",
  "features": [
    {
      "type": "Feature",
      "properties": {
        "norad_id": 51444,
        "name": "CSG-2",
        "group": "resource",
        "lat": -4.578830145998365,
        "lon": 169.64435139682985,
        "alt_km": 625.9858426432102,
        "timestamp": "2025-12-13T16:48:32.371255+00:00",
        "meta_object_name": "CSG-2",
        "meta_object_id": "2022-008A",
        "meta_epoch": "2025-12-13T00:37:38.624736",
        "meta_mean_motion": 14.82166213,
        "meta_eccentricity": 0.00015368,
        "meta_inclination": 97.8809,
        "meta_ra_of_asc_node": 168.3449,
        "meta_arg_of_pericenter": 82.0322,
        "meta_mean_anomaly": 278.1066,
        "meta_ephemeris_type": 0,
        "meta_classification_type": "U",
        "meta_norad_cat_id": 51444,
        "meta_element_set_no": 999,
        "meta_rev_at_epoch": 20901,
        "meta_bstar": 0.00014576655,
        "meta_mean_motion_dot": 1.109e-05,
        "meta_mean_motion_ddot": 0,
        "tle_line1": "1 51444U 22008A   25347.02614149  .00001109  00000+0  14577-3 0  9995",
        "tle_line2": "2 51444  97.8809 168.3449 0001536  82.0322 278.1066 14.82166213209014"
      },
      "geometry": {
        "type": "Point",
        "coordinates": [
          169.64435139682985,
          -4.578830145998365
        ]
      }
    },
    {
      "type": "Feature",
      "properties": {
        "norad_id": 52912,
        "name": "GAOFEN-12 03",
        "group": "resource",
        "lat": -79.64514356908751,
        "lon": 6.0159672331364415,
        "alt_km": 639.2786094360154,
        "timestamp": "2025-12-13T16:48:32.371265+00:00",
        "meta_object_name": "GAOFEN-12 03",
        "meta_object_id": "2022-069A",
        "meta_epoch": "2025-12-12T23:23:33.207360",
        "meta_mean_motion": 14.79611076,
        "meta_eccentricity": 0.00021596,
        "meta_inclination": 97.8477,
        "meta_ra_of_asc_node": 234.3185,
        "meta_arg_of_pericenter": 61.9775,
        "meta_mean_anomaly": 298.1655,
        "meta_ephemeris_type": 0,
        "meta_classification_type": "U",
        "meta_norad_cat_id": 52912,
        "meta_element_set_no": 999,
        "meta_rev_at_epoch": 18707,
        "meta_bstar": 0.00030551615,
        "meta_mean_motion_dot": 2.239e-05,
        "meta_mean_motion_ddot": 0,
        "tle_line1": "1 52912U 22069A   25346.97468990  .00002239  00000+0  30552-3 0  9993",
        "tle_line2": "2 52912  97.8477 234.3185 0002159  61.9775 298.1655 14.79611076187072"
      },
      "geometry": {
        "type": "Point",
        "coordinates": [
          6.0159672331364415,
          -79.64514356908751
        ]
      }
    },
    {
      "type": "Feature",
      "properties": {
        "norad_id": 54754,
        "name": "SWOT",
        "group": "resource",
        "lat": -34.27386025627474,
        "lon": -82.92190031092645,
        "alt_km": 899.3975426765237,
        "timestamp": "2025-12-13T16:48:32.371275+00:00",
        "meta_object_name": "SWOT",
        "meta_object_id": "2022-173A",
        "meta_epoch": "2025-12-12T23:49:40.219104",
        "meta_mean_motion": 14.00174731,
        "meta_eccentricity": 3.515e-05,
        "meta_inclination": 77.6107,
        "meta_ra_of_asc_node": 286.6479,
        "meta_arg_of_pericenter": 110.2012,
        "meta_mean_anomaly": 249.9177,
        "meta_ephemeris_type": 0,
        "meta_classification_type": "U",
        "meta_norad_cat_id": 54754,
        "meta_element_set_no": 999,
        "meta_rev_at_epoch": 15309,
        "meta_bstar": 5.5235993e-05,
        "meta_mean_motion_dot": 7.9e-07,
        "meta_mean_motion_ddot": 0,
        "tle_line1": "1 54754U 22173A   25346.99282661  .00000079  00000+0  55236-4 0  9993",
        "tle_line2": "2 54754  77.6107 286.6479 0000351 110.2012 249.9177 14.00174731153098"
      },
      "geometry": {
        "type": "Point",
        "coordinates": [
          -82.92190031092645,
          -34.27386025627474
        ]
      }
    },
    {
      "type": "Feature",
      "properties": {
        "norad_id": 57654,
        "name": "GAOFEN-12 04",
        "group": "resource",
        "lat": 71.39434898014359,
        "lon": -120.95564287063506,
        "alt_km": 622.4196722686638,
        "timestamp": "2025-12-13T16:48:32.371285+00:00",
        "meta_object_name": "GAOFEN-12 04",
        "meta_object_id": "2023-123A",
        "meta_epoch": "2025-12-13T00:15:01.944288",
        "meta_mean_motion": 14.79702248,
        "meta_eccentricity": 0.00013509,
        "meta_inclination": 97.9117,
        "meta_ra_of_asc_node": 262.7637,
        "meta_arg_of_pericenter": 75.0578,
        "meta_mean_anomaly": 285.0783,
        "meta_ephemeris_type": 0,
        "meta_classification_type": "U",
        "meta_norad_cat_id": 57654,
        "meta_element_set_no": 999,
        "meta_rev_at_epoch": 12509,
        "meta_bstar": 0.00031718514,
        "meta_mean_motion_dot": 2.331e-05,
        "meta_mean_motion_ddot": 0,
        "tle_line1": "1 57654U 23123A   25347.01043917  .00002331  00000+0  31719-3 0  9996",
        "tle_line2": "2 57654  97.9117 262.7637 0001350  75.0578 285.0783 14.79702248125091"
      },
      "geometry": {
        "type": "Point",
        "coordinates": [
          -120.95564287063506,
          71.39434898014359
        ]
      }
    },
    {
      "type": "Feature",
      "properties": {
        "norad_id": 59065,
        "name": "PARS 1",
        "group": "resource",
        "lat": -38.497433504614506,
        "lon": -35.3610257264085,
        "alt_km": 452.2971673533584,
        "timestamp": "2025-12-13T16:48:32.371296+00:00",
        "meta_object_name": "PARS 1",
        "meta_object_id": "2024-039Q",
        "meta_epoch": "2025-12-12T23:50:04.117344",
        "meta_mean_motion": 15.40981461,
        "meta_eccentricity": 0.0012536,
        "meta_inclination": 97.4635,
        "meta_ra_of_asc_node": 317.9315,
        "meta_arg_of_pericenter": 71.7114,
        "meta_mean_anomaly": 288.5495,
        "meta_ephemeris_type": 0,
        "meta_classification_type": "U",
        "meta_norad_cat_id": 59065,
        "meta_element_set_no": 999,
        "meta_rev_at_epoch": 9992,
        "meta_bstar": 0.00038339665,
        "meta_mean_motion_dot": 0.00015768,
        "meta_mean_motion_ddot": 0,
        "tle_line1": "1 59065U 24039Q   25346.99310321  .00015768  00000+0  38340-3 0  9998",
        "tle_line2": "2 59065  97.4635 317.9315 0012536  71.7114 288.5495 15.40981461 99927"
      },
      "geometry": {
        "type": "Point",
        "coordinates": [
          -35.3610257264085,
          -38.497433504614506
        ]
      }
    },
    {
      "type": "Feature",
      "properties": {
        "norad_id": 59371,
        "name": "RESURS-P 4",
        "group": "resource",
        "lat": 71.24697424530245,
        "lon": -88.024285622509,
        "alt_km": 461.75221872449674,
        "timestamp": "2025-12-13T16:48:32.371306+00:00",
        "meta_object_name": "RESURS-P 4",
        "meta_object_id": "2024-061A",
        "meta_epoch": "2025-12-13T00:49:05.119392",
        "meta_mean_motion": 15.32088986,
        "meta_eccentricity": 0.00015011,
        "meta_inclination": 97.254,
        "meta_ra_of_asc_node": 293.3582,
        "meta_arg_of_pericenter": 52.915,
        "meta_mean_anomaly": 307.2229,
        "meta_ephemeris_type": 0,
        "meta_classification_type": "U",
        "meta_norad_cat_id": 59371,
        "meta_element_set_no": 999,
        "meta_rev_at_epoch": 9525,
        "meta_bstar": 0.00019083726,
        "meta_mean_motion_dot": 5.836e-05,
        "meta_mean_motion_ddot": 0,
        "tle_line1": "1 59371U 24061A   25347.03408703  .00005836  00000+0  19084-3 0  9990",
        "tle_line2": "2 59371  97.2540 293.3582 0001501  52.9150 307.2229 15.32088986 95251"
      },
      "geometry": {
        "type": "Point",
        "coordinates": [
          -88.024285622509,
          71.24697424530245
        ]
      }
    },
    {
      "type": "Feature",
      "properties": {
        "norad_id": 59625,
        "name": "LEGION 1",
        "group": "resource",
        "lat": -62.88964907969939,
        "lon": -132.62538536042757,
        "alt_km": 522.7904431913248,
        "timestamp": "2025-12-13T16:48:32.371316+00:00",
        "meta_object_name": "LEGION 1",
        "meta_object_id": "2024-081A",
        "meta_epoch": "2025-12-12T23:54:02.151072",
        "meta_mean_motion": 15.1648505,
        "meta_eccentricity": 0.00039169,
        "meta_inclination": 97.5212,
        "meta_ra_of_asc_node": 61.6318,
        "meta_arg_of_pericenter": 317.4955,
        "meta_mean_anomaly": 42.5975,
        "meta_ephemeris_type": 0,
        "meta_classification_type": "U",
        "meta_norad_cat_id": 59625,
        "meta_element_set_no": 999,
        "meta_rev_at_epoch": 8931,
        "meta_bstar": 0.000366352,
        "meta_mean_motion_dot": 7.069e-05,
        "meta_mean_motion_ddot": 0,
        "tle_line1": "1 59625U 24081A   25346.99585823  .00007069  00000+0  36635-3 0  9998",
        "tle_line2": "2 59625  97.5212  61.6318 0003916 317.4955  42.5975 15.16485050 89311"
      },
      "geometry": {
        "type": "Point",
        "coordinates": [
          -132.62538536042757,
          -62.88964907969939
        ]
      }
    }
  ]
}